[{"OBJECT_NAME":"STARLINK-2361","OBJECT_ID":"2021-021AT","EPOCH":"2026-03-09T17:04:09.940224","MEAN_MOTION":15.30175875,"ECCENTRICITY":0.00013529,"INCLINATION":53.1601,"RA_OF_ASC_NODE":255.2953,"ARG_OF_PERICENTER":53.482,"MEAN_ANOMALY":306.6305,"EPHEMERIS_TYPE":0,"CLASSIFICATION_TYPE":"U","NORAD_CAT_ID":47901,"ELEMENT_SET_NO":999,"REV_AT_EPOCH":27642,"BSTAR":-0.00017566341,"MEAN_MOTION_DOT":-5.554e-5,"MEAN_MOTION_DDOT":0},{"OBJECT_NAME":"TRANSPORTER-1 OBJECT AA","OBJECT_ID":"2021-006AA","EPOCH":"2026-03-09T22:58:14.761920","MEAN_MOTION":15.29982294,"ECCENTRICITY":0.00086604,"INCLINATION":97.2381,"RA_OF_ASC_NODE":112.457,"ARG_OF_PERICENTER":185.709,"MEAN_ANOMALY":174.4054,"EPHEMERIS_TYPE":0,"CLASSIFICATION_TYPE":"U","NORAD_CAT_ID":47437,"ELEMENT_SET_NO":999,"REV_AT_EPOCH":28414,"BSTAR":0.0002197941,"MEAN_MOTION_DOT":6.312e-5,"MEAN_MOTION_DDOT":0}]
